#dP2024 11  3 12  0  0.00000000      96 __u+U IGS20 EXT  IAC
## 2339  43200.00000000   900.00000000 60617 0.5000000000000
+   52   G02G03G04G05G06G07G08G09G10G11G12G13G14G15G16G17G18
+        G19G20G21G22G23G24G25G26G27G28G29G30G31G32R01R02R03
+        R04R05R07R08R09R11R12R14R15R16R17R18R19R20R21R22R24
+        R26  0  0  0  0  0  0  0  0  0  0  0  0  0  0  0  0
+          0  0  0  0  0  0  0  0  0  0  0  0  0  0  0  0  0
++         8  7  7  8  8  7  7  8  7  8  7  8  7  8  8  9  7
++         8  8  8  7  7  8  7 10  7  7  7  7  8  7  8  7  7
++         7  8  7  7  8 10  9  8  8 10  9  7  8  7  9  8  9
++         8  0  0  0  0  0  0  0  0  0  0  0  0  0  0  0  0
++         0  0  0  0  0  0  0  0  0  0  0  0  0  0  0  0  0
%c M  cc GPS ccc cccc cccc cccc cccc ccccc ccccc ccccc ccccc
%c cc cc ccc ccc cccc cccc cccc cccc ccccc ccccc ccccc ccccc
%f  0.0000000  0.000000000  0.00000000000  0.000000000000000
%f  0.0000000  0.000000000  0.00000000000  0.000000000000000
%i    0    0    0    0      0      0      0      0         0
%i    0    0    0    0      0      0      0      0         0
/* IAC                                ULTRA-RAPID PREDICTION
/* S/V CLOCKS ARE ALIGNED TO GNSS TIME                      
/* G:C1WC2W R:C1PC2P E:C1XC5X C:C2IC6I J:C1CC2S             
/* PCV:IGS20_2317 OL/AL:FES2004  NONE     YN ORB:CoN CLK:CoN
*  2024 11 03 13 30  0.00000000
PG02 -13996.908198  17859.398130  13980.325787   -322.834772
PG03 -19779.680591  12618.617931 -12507.652273    589.542174
PG04  -9492.376664  12002.564972 -21683.552313    473.114190
PG05  26000.415179  -4734.558287  -3159.477730   -191.847691
PG06   7689.497920  16554.005973 -19182.409553    -86.531853
PG07  -5668.493252  25535.987142   3356.124302    -22.552048
PG08 -18080.139743   1369.929015  19433.578446    403.327076
PG09    197.519534  19048.798801 -18573.093204    427.206534
PG10 -12036.233514 -11588.952007  20951.204254   -181.984587
PG11  15128.886493   2283.289125 -21667.333988   -748.232963
PG12  22967.825777  -9844.540207  -9213.941580   -549.591983
PG13  19123.453338   8427.218006  16299.076057    684.434397
PG14   7826.933473  14076.313133  21195.294155    531.810728
PG15  17464.514354  -4027.739974  19127.442696    223.390834
PG16 -25849.882556  -1747.417384  -7180.937303   -137.958421
PG17  12316.979570  22587.248128   6596.809658    572.498997
PG18   5343.404496 -25471.701570   4681.795348   -659.740609
PG19  17762.853885  19717.402805  -3839.148913    558.370805
PG20  22498.645128   1263.695419 -13864.474700    369.072651
PG21 -15499.562420  11572.162609  18089.200600     98.321342
PG22  15322.420911  11321.464560  18778.072463    -76.495440
PG23   3218.566414 -15468.269417  21343.008120    355.471084
PG24  14340.793916 -16546.980404  14286.940140   -482.178427
PG25  11348.275464 -16015.406956 -18120.059637    499.239543
PG26 -19704.773094  -6994.708710 -16763.740475     38.821041
PG27 -21203.744745  -9681.396096  12824.568232    -34.742046
PG28  -7517.710442 -18415.650645 -17615.335753   -467.249601
PG29   2484.761607 -18226.410260 -19155.529921   -566.570689
PG30   2447.191155  23147.664125  12693.163473   -289.455152
PG31 -13788.178339  -7251.354778 -21727.323750   -222.379505
PG32 -15616.266002 -21236.173738   4288.782859   -578.695824
PR01 -18580.464089 -14183.020996  10201.834768    103.207091
PR02 -23065.490693  -8500.913267  -6913.935043    -25.491812
PR03 -15062.146886   2975.777232 -20349.989889    110.649680
PR04    937.106864  12154.372004 -22379.017653    262.278333
PR05  16318.685122  15130.506853 -12432.959859    140.132385
PR07  14584.476025  -3369.556431  20671.899923     94.229504
PR08  -1286.324416 -12389.686792  22321.798812     -6.323820
PR09  19385.683832  -3720.084730  16223.978495    218.416957
PR11  12785.791040 -16691.356222 -14446.508308      7.719138
PR12  -5704.510955  -9430.332560 -22981.638303     46.804379
PR14 -21335.589091  13952.776419   -496.235533     27.164289
PR15 -11365.591280  16504.496095  15795.352976     74.466288
PR16   5508.494690   9394.538664  23073.289638     30.482845
PR17  -8473.549870  13800.083076  19741.180996    136.565021
PR18  -2318.888512  24465.933546   6779.211818    170.073025
PR19   3603.042038  23933.664956  -8065.689857   -297.154769
PR20  10025.723220   6799.280199 -22426.873247   -121.403507
PR21   8779.195366 -12756.264326 -20250.724253   -148.202810
PR22   2370.227449 -24805.188704  -5439.828269      1.393428
PR24 -10865.286297  -5740.926960  22373.252416    -78.631387
PR26    425.580304 -11661.609140  22696.298676   -488.849085
*  2024 11 03 13 45  0.00000000
PG02 -13858.615028  16197.243146  16087.570841   -322.827173
PG03 -21045.829824  12766.626133  -9997.680929    589.552000
PG04 -11176.465754  10165.854981 -21832.411954    473.120125
PG05  25581.090096  -4391.874926  -5974.703855   -191.848707
PG06   6977.069963  18545.921725 -17560.663734    -86.557581
PG07  -6020.374233  25609.539165    505.839258    -22.549586
PG08 -19554.037164   -208.870964  18051.160837    403.336714
PG09  -1449.581975  17605.976435 -19906.118303    427.221703
PG10  -9730.205448 -12196.739069  21766.871223   -181.997274
PG11  14348.967458   4653.477040 -21823.272480   -748.234867
PG12  23863.967716  -9767.929506  -6546.586333   -549.594252
PG13  20042.063753   9954.002222  14255.255541    684.435913
PG14   5456.046378  14645.556623  21529.858493    531.818171
PG15  19138.825862  -2572.094267  17778.894834    223.394914
PG16 -24975.824629  -2086.827833  -9790.481264   -137.949533
PG17  11580.854597  22083.860834   9278.776973    572.486457
PG18   5672.994009 -25758.572058   1817.824965   -659.741279
PG19  17759.765552  20048.439770  -1016.838834    558.374889
PG20  21013.738994   2162.289590 -15931.918495    369.072348
PG21 -15281.038902   9459.281890  19572.755895     98.320560
PG22  13210.479754  11780.995298  20108.899184    -76.498196
PG23   5530.798721 -16041.497564  20404.324223    355.478317
PG24  14275.172369 -14686.992957  16231.616297   -482.176775
PG25  13253.949784 -16349.103598 -16390.329339    499.239329
PG26 -17892.676051  -7798.378262 -18346.489190     38.809904
PG27 -22018.401062 -10786.708183  10438.353208    -34.742102
PG28  -6895.021521 -20227.053501 -15786.538392   -467.260584
PG29   4008.418826 -16560.205394 -20384.527122   -566.568099
PG30   1811.278976  24329.395876  10318.487128   -289.448223
PG31 -13021.708456  -9543.243119 -21272.109652   -222.378942
PG32 -15021.983134 -20953.198648   7038.929297   -578.691347
PR01 -17320.019629 -13492.727815  12977.412169    103.208334
PR02 -23738.960975  -8634.661116  -3782.113837    -25.491898
PR03 -17283.280139   2027.807396 -18638.293442    110.650353
PR04  -1574.367927  10899.892637 -22982.530822    262.280010
PR05  14856.642826  14254.849942 -15030.863627    140.132974
PR07  16829.820291  -2398.987402  19028.492719     94.230239
PR08   1212.058484 -11168.253125  22959.255123     -6.323663
PR09  17646.869492  -2501.678609  18303.633160    218.418948
PR11  14036.779287 -17729.664793 -11810.900079      7.718438
PR12  -3399.834799 -11062.748052 -22707.887406     46.804885
PR14 -21057.253512  13896.420950  -3682.206052     27.164427
PR15 -12775.721462  17617.011930  13318.950729     74.466035
PR16   3207.597961  11038.393536  22775.126899     30.483226
PR17  -8577.981978  11274.888122  21239.894941    136.568143
PR18  -2198.035440  23433.777144   9804.685513    170.074801
PR19   3837.828653  24731.819444  -4952.400199   -297.155865
PR20  10178.842099   9505.603721 -21346.378721   -121.403958
PR21   8870.719944 -10166.687505 -21631.655798   -148.205559
PR22   2267.447814 -23935.809865  -8499.352785      1.382923
PR24 -11122.224785  -8423.199263  21372.678027    -78.632694
PR26   2975.815942 -10451.921581  23092.531587   -488.811736
EOF
